{
  "type": "FeatureCollection",
  "features": [
    {
      "type": "Feature",
      "properties": {
        "norad_id": 66932,
        "name": "STARLINK-36177",
        "group": "last-30-days",
        "lat": 48.40486683395032,
        "lon": 132.02206292630922,
        "alt_km": 335.14360688584657,
        "timestamp": "2025-12-20T20:38:43.174475+00:00",
        "meta_object_name": "STARLINK-36177",
        "meta_object_id": "2025-286H",
        "meta_epoch": "2025-12-20T14:00:03.000384",
        "meta_mean_motion": 15.76731396,
        "meta_eccentricity": 8.512e-05,
        "meta_inclination": 53.1565,
        "meta_ra_of_asc_node": 11.0402,
        "meta_arg_of_pericenter": 62.1005,
        "meta_mean_anomaly": 276.6999,
        "meta_ephemeris_type": 0,
        "meta_classification_type": "U",
        "meta_norad_cat_id": 66932,
        "meta_element_set_no": 999,
        "meta_rev_at_epoch": 325,
        "meta_bstar": -0.0096668624,
        "meta_mean_motion_dot": -0.01404997,
        "meta_mean_motion_ddot": 0,
        "tle_line1": "1 66932U 25286H   25354.58336806 -.01404997  00000+0 -96669-2 0  9990",
        "tle_line2": "2 66932  53.1565  11.0402 0000851  62.1005 276.6999 15.76731396  3255"
      },
      "geometry": {
        "type": "Point",
        "coordinates": [
          132.02206292630922,
          48.40486683395032
        ]
      }
    },
    {
      "type": "Feature",
      "properties": {
        "norad_id": 66933,
        "name": "STARLINK-36157",
        "group": "last-30-days",
        "lat": 47.505779671890295,
        "lon": 134.72648910550032,
        "alt_km": 335.47180133852817,
        "timestamp": "2025-12-20T20:38:43.174485+00:00",
        "meta_object_name": "STARLINK-36157",
        "meta_object_id": "2025-286J",
        "meta_epoch": "2025-12-20T14:00:03.000384",
        "meta_mean_motion": 15.76684941,
        "meta_eccentricity": 8.097e-05,
        "meta_inclination": 53.1565,
        "meta_ra_of_asc_node": 11.036,
        "meta_arg_of_pericenter": 59.8186,
        "meta_mean_anomaly": 281.0505,
        "meta_ephemeris_type": 0,
        "meta_classification_type": "U",
        "meta_norad_cat_id": 66933,
        "meta_element_set_no": 999,
        "meta_rev_at_epoch": 325,
        "meta_bstar": -0.0097181302,
        "meta_mean_motion_dot": -0.01408982,
        "meta_mean_motion_ddot": 0,
        "tle_line1": "1 66933U 25286J   25354.58336806 -.01408982  00000+0 -97181-2 0  9999",
        "tle_line2": "2 66933  53.1565  11.0360 0000809  59.8186 281.0505 15.76684941  3251"
      },
      "geometry": {
        "type": "Point",
        "coordinates": [
          134.72648910550032,
          47.505779671890295
        ]
      }
    },
    {
      "type": "Feature",
      "properties": {
        "norad_id": 66934,
        "name": "STARLINK-36153",
        "group": "last-30-days",
        "lat": 46.54410858783669,
        "lon": 137.33778543075536,
        "alt_km": 335.64327980371036,
        "timestamp": "2025-12-20T20:38:43.174495+00:00",
        "meta_object_name": "STARLINK-36153",
        "meta_object_id": "2025-286K",
        "meta_epoch": "2025-12-20T14:00:03.000384",
        "meta_mean_motion": 15.76639819,
        "meta_eccentricity": 9.206e-05,
        "meta_inclination": 53.156,
        "meta_ra_of_asc_node": 11.0317,
        "meta_arg_of_pericenter": 68.3927,
        "meta_mean_anomaly": 274.5468,
        "meta_ephemeris_type": 0,
        "meta_classification_type": "U",
        "meta_norad_cat_id": 66934,
        "meta_element_set_no": 999,
        "meta_rev_at_epoch": 325,
        "meta_bstar": -0.0098019387,
        "meta_mean_motion_dot": -0.01417274,
        "meta_mean_motion_ddot": 0,
        "tle_line1": "1 66934U 25286K   25354.58336806 -.01417274  00000+0 -98019-2 0  9995",
        "tle_line2": "2 66934  53.1560  11.0317 0000920  68.3927 274.5468 15.76639819  3250"
      },
      "geometry": {
        "type": "Point",
        "coordinates": [
          137.33778543075536,
          46.54410858783669
        ]
      }
    },
    {
      "type": "Feature",
      "properties": {
        "norad_id": 66935,
        "name": "STARLINK-36127",
        "group": "last-30-days",
        "lat": 45.503631363386795,
        "lon": 139.90656898785448,
        "alt_km": 336.0775094244309,
        "timestamp": "2025-12-20T20:38:43.174512+00:00",
        "meta_object_name": "STARLINK-36127",
        "meta_object_id": "2025-286L",
        "meta_epoch": "2025-12-20T14:00:03.000384",
        "meta_mean_motion": 15.7654829,
        "meta_eccentricity": 6.942e-05,
        "meta_inclination": 53.1559,
        "meta_ra_of_asc_node": 11.0271,
        "meta_arg_of_pericenter": 75.0435,
        "meta_mean_anomaly": 270.0437,
        "meta_ephemeris_type": 0,
        "meta_classification_type": "U",
        "meta_norad_cat_id": 66935,
        "meta_element_set_no": 999,
        "meta_rev_at_epoch": 325,
        "meta_bstar": -0.0095991498,
        "meta_mean_motion_dot": -0.01386055,
        "meta_mean_motion_ddot": 0,
        "tle_line1": "1 66935U 25286L   25354.58336806 -.01386055  00000+0 -95991-2 0  9994",
        "tle_line2": "2 66935  53.1559  11.0271 0000694  75.0435 270.0437 15.76548290  3254"
      },
      "geometry": {
        "type": "Point",
        "coordinates": [
          139.90656898785448,
          45.503631363386795
        ]
      }
    },
    {
      "type": "Feature",
      "properties": {
        "norad_id": 66936,
        "name": "STARLINK-36160",
        "group": "last-30-days",
        "lat": 44.4488255483773,
        "lon": 142.29154349210012,
        "alt_km": 336.41865644122936,
        "timestamp": "2025-12-20T20:38:43.174526+00:00",
        "meta_object_name": "STARLINK-36160",
        "meta_object_id": "2025-286M",
        "meta_epoch": "2025-12-20T14:00:03.000384",
        "meta_mean_motion": 15.76517617,
        "meta_eccentricity": 7.344e-05,
        "meta_inclination": 53.1561,
        "meta_ra_of_asc_node": 11.0235,
        "meta_arg_of_pericenter": 64.5056,
        "meta_mean_anomaly": 282.602,
        "meta_ephemeris_type": 0,
        "meta_classification_type": "U",
        "meta_norad_cat_id": 66936,
        "meta_element_set_no": 999,
        "meta_rev_at_epoch": 325,
        "meta_bstar": -0.0096845911,
        "meta_mean_motion_dot": -0.01395333,
        "meta_mean_motion_ddot": 0,
        "tle_line1": "1 66936U 25286M   25354.58336806 -.01395333  00000+0 -96846-2 0  9994",
        "tle_line2": "2 66936  53.1561  11.0235 0000734  64.5056 282.6020 15.76517617  3251"
      },
      "geometry": {
        "type": "Point",
        "coordinates": [
          142.29154349210012,
          44.4488255483773
        ]
      }
    },
    {
      "type": "Feature",
      "properties": {
        "norad_id": 66937,
        "name": "STARLINK-36165",
        "group": "last-30-days",
        "lat": 43.34309687819757,
        "lon": 144.59448084543268,
        "alt_km": 336.6760475804904,
        "timestamp": "2025-12-20T20:38:43.174536+00:00",
        "meta_object_name": "STARLINK-36165",
        "meta_object_id": "2025-286N",
        "meta_epoch": "2025-12-20T14:00:03.000384",
        "meta_mean_motion": 15.76482015,
        "meta_eccentricity": 8.979e-05,
        "meta_inclination": 53.1562,
        "meta_ra_of_asc_node": 11.0188,
        "meta_arg_of_pericenter": 62.7838,
        "meta_mean_anomaly": 286.3538,
        "meta_ephemeris_type": 0,
        "meta_classification_type": "U",
        "meta_norad_cat_id": 66937,
        "meta_element_set_no": 999,
        "meta_rev_at_epoch": 325,
        "meta_bstar": -0.0097610112,
        "meta_mean_motion_dot": -0.0140321,
        "meta_mean_motion_ddot": 0,
        "tle_line1": "1 66937U 25286N   25354.58336806 -.01403210  00000+0 -97610-2 0  9999",
        "tle_line2": "2 66937  53.1562  11.0188 0000897  62.7838 286.3538 15.76482015  3256"
      },
      "geometry": {
        "type": "Point",
        "coordinates": [
          144.59448084543268,
          43.34309687819757
        ]
      }
    },
    {
      "type": "Feature",
      "properties": {
        "norad_id": 66938,
        "name": "STARLINK-36155",
        "group": "last-30-days",
        "lat": 42.19488768178501,
        "lon": 146.8090904327219,
        "alt_km": 337.04467046974605,
        "timestamp": "2025-12-20T20:38:43.174548+00:00",
        "meta_object_name": "STARLINK-36155",
        "meta_object_id": "2025-286P",
        "meta_epoch": "2025-12-20T14:00:03.000384",
        "meta_mean_motion": 15.76444086,
        "meta_eccentricity": 6.691e-05,
        "meta_inclination": 53.1561,
        "meta_ra_of_asc_node": 11.0145,
        "meta_arg_of_pericenter": 66.1414,
        "meta_mean_anomaly": 285.0287,
        "meta_ephemeris_type": 0,
        "meta_classification_type": "U",
        "meta_norad_cat_id": 66938,
        "meta_element_set_no": 999,
        "meta_rev_at_epoch": 325,
        "meta_bstar": -0.0098327852,
        "meta_mean_motion_dot": -0.01410114,
        "meta_mean_motion_ddot": 0,
        "tle_line1": "1 66938U 25286P   25354.58336806 -.01410114  00000+0 -98328-2 0  9998",
        "tle_line2": "2 66938  53.1561  11.0145 0000669  66.1414 285.0287 15.76444086  3257"
      },
      "geometry": {
        "type": "Point",
        "coordinates": [
          146.8090904327219,
          42.19488768178501
        ]
      }
    }
  ]
}